SL-16 R/B               
1 23405U 94077B   26162.96226864 -.00000171  00000+0 -63081-4 0  9993
2 23405  70.9805 154.1549 0002711 331.3240  28.7733 14.15572076629578
ARIANE 40+ R/B          
1 23561U 95021B   26162.78263201  .00000201  00000+0  77889-4 0  9995
2 23561  98.4411 232.9355 0006073 210.6791 260.8776 14.39830346632780
SL-16 R/B               
1 23705U 95058B   26162.90314842  .00000131  00000+0  91469-4 0  9999
2 23705  71.0215 342.4530 0013521 327.7062  32.3232 14.15505656581181
SL-16 R/B               
1 24298U 96051B   26162.93234453  .00000119  00000+0  91048-4 0  9992
2 24298  70.7637 335.7702 0015018 344.8359  15.2308 14.12444145534950
ORBVIEW 2 (SEASTAR)     
1 24883U 97037A   26162.93192742  .00000187  00000+0  81279-4 0  9991
2 24883  98.8683 329.8055 0003056 126.5948 233.5519 14.35550768521998
SL-16 R/B               
1 25400U 98043G   26162.89025364  .00000024  00000+0  29019-4 0  9999
2 25400  98.8363 117.0040 0010921 100.1375 260.1037 14.26067736452410
SL-16 R/B               
1 25407U 98045B   26162.93847204 -.00000142  00000+0 -47479-4 0  9991
2 25407  71.0121 343.3682 0009498 248.3469 111.6643 14.16204782440440
ISS (ZARYA)             
1 25544U 98067A   26162.83551937  .00007284  00000+0  13937-3 0  9994
2 25544  51.6334 326.5798 0004934 175.2433 184.8603 15.49179015570924
CZ-4B R/B               
1 25732U 99025C   26162.98868895  .00000030  00000+0  35032-4 0  9991
2 25732  98.6485 204.9579 0038203  74.1878 349.9504 14.18282590401535
OKEAN-O                 
1 25860U 99039A   26162.73778474  .00000481  00000+0  69705-4 0  9998
2 25860  97.9317 221.5980 0001733  75.5952 284.5453 14.80460666448304
SL-16 R/B               
1 25861U 99039B   26162.69710905  .00000404  00000+0  57946-4 0  9998
2 25861  97.9838 221.5756 0013769 316.3327  43.6796 14.81839823450783
DELTA 2 R/B             
1 25876U 99041E   26162.65456808  .00000741  00000+0  15698-3 0  9993
2 25876  51.7663 285.8973 0500871 265.6608  88.6960 14.12006108376303
HELIOS 1B               
1 25977U 99064A   26162.73176856  .00001172  00000+0  13417-3 0  9997
2 25977  98.1620  67.7135 0002470  98.4274 261.7222 14.87992386699243
TERRA                   
1 25994U 99068A   26162.96169045  .00000319  00000+0  73983-4 0  9994
2 25994  97.9458 212.7150 0001181 210.9434 272.5846 14.61098896408845
SL-16 R/B               
1 26070U 00006B   26162.69573178 -.00000274  00000+0 -11472-3 0  9996
2 26070  71.0027 260.1719 0015234  31.5761 328.6273 14.15835303361866
TITAN 4B R/B            
1 26474U 00047B   26162.96049455  .00002792  00000+0  17492-3 0  9998
2 26474  67.9873 135.2846 0045615 292.5189  67.1135 15.10166795407141
ENVISAT                 
1 27386U 02009A   26162.89634601  .00000055  00000+0  31557-4 0  9995
2 27386  98.3833 114.3328 0001338  89.8532 336.4099 14.39063569272724
IDEFIX & ARIANE 42P R/B 
1 27422U 02021B   26162.81586250  .00000164  00000+0  79078-4 0  9999
2 27422  98.5943 100.3572 0010586 271.5901  88.4069 14.31079640257486
AQUA                    
1 27424U 02022A   26162.92162943  .00000643  00000+0  13765-3 0  9995
2 27424  98.4275 132.0993 0001312  53.2172   7.4768 14.62150095282502
CZ-4B R/B               
1 27432U 02024C   26162.80451421  .00000021  00000+0  33482-4 0  9994
2 27432  98.8700 215.6594 0051142 115.2012 359.8350 14.14563447242548
MIDORI II (ADEOS-II)    
1 27597U 02056A   26162.88794153  .00000209  00000+0  99838-4 0  9996
2 27597  98.7877 122.1027 0002216  83.9491 276.1942 14.29346788223750
H-2A R/B                
1 27601U 02056E   26162.91902145  .00000145  00000+0  65542-4 0  9992
2 27601  98.3310 119.7857 0068997 240.4971 188.0062 14.33819815227612
CZ-4B R/B               
1 28059U 03049C   26162.93642711  .00000256  00000+0  70362-4 0  9994
2 28059  98.6895 161.5739 0047124 304.9987  54.6789 14.55096716200309
CZ-2C R/B               
1 28222U 04012C   26162.96191833  .00091541  00000+0  53674-3 0  9997
2 28222  97.7094 238.0208 0008964 306.0599  53.9836 15.77982003219071
SL-16 R/B               
1 28353U 04021B   26162.92859634 -.00000276  00000+0 -11894-3 0  9993
2 28353  71.0016  34.7262 0007444 260.7800  99.2480 14.14610720136169
CZ-4B R/B               
1 28415U 04035C   26162.64100424  .00007555  00000+0  25480-3 0  9993
2 28415  97.3373 195.7768 0030571 358.1891   1.9235 15.30545786194275
CZ-2C R/B               
1 28480U 04046B   26162.72238892  .00000040  00000+0  30355-4 0  9997
2 28480  98.1949  71.8445 0138256 236.5373 122.2530 14.27025326121918
ARIANE 5 R/B            
1 28499U 04049H   26162.94351451  .00000592  00000+0  71409-4 0  9998
2 28499  98.2717 334.9941 0084825  46.2765 314.5433 14.85442042159785
CZ-2D R/B               
1 28738U 05024B   26162.67163557  .00052370  00000+0  45434-3 0  9995
2 28738  97.3492 181.8269 0004263  64.7947 295.3757 15.68959215154471
ALOS (DAICHI)           
1 28931U 06002A   26162.84944466  .00000879  00000+0  15478-3 0  9994
2 28931  98.1322 118.4335 0001646  58.1351 302.0014 14.70039419 87312
