OBJECT_NAME,OBJECT_ID,EPOCH,MEAN_MOTION,ECCENTRICITY,INCLINATION,RA_OF_ASC_NODE,ARG_OF_PERICENTER,MEAN_ANOMALY,EPHEMERIS_TYPE,CLASSIFICATION_TYPE,NORAD_CAT_ID,ELEMENT_SET_NO,REV_AT_EPOCH,BSTAR,MEAN_MOTION_DOT,MEAN_MOTION_DDOT
SL-16 R/B,1994-077B,2026-06-11T23:05:40.010496,14.15572076,.00027116,70.9805,154.1549,331.3240,28.7733,0,U,23405,999,62957,-.63081059E-4,-.171E-5,0
ARIANE 40+ R/B,1995-021B,2026-06-11T18:46:59.405664,14.39830346,.00060735,98.4411,232.9355,210.6791,260.8776,0,U,23561,999,63278,.77889303E-4,.201E-5,0
SL-16 R/B,1995-058B,2026-06-11T21:40:32.023488,14.15505656,.0013521,71.0215,342.4530,327.7062,32.3232,0,U,23705,999,58118,.91469198E-4,.131E-5,0
SL-16 R/B,1996-051B,2026-06-11T22:22:34.567392,14.12444145,.00150187,70.7637,335.7702,344.8359,15.2308,0,U,24298,999,53495,.91047573E-4,.119E-5,0
ORBVIEW 2 (SEASTAR),1997-037A,2026-06-11T22:21:58.529088,14.35550768,.00030567,98.8683,329.8055,126.5948,233.5519,0,U,24883,999,52199,.81278583E-4,.187E-5,0
SL-16 R/B,1998-043G,2026-06-11T21:21:57.914496,14.26067736,.00109213,98.8363,117.0040,100.1375,260.1037,0,U,25400,999,45241,.29019441E-4,.24E-6,0
SL-16 R/B,1998-045B,2026-06-11T22:31:23.984256,14.16204782,.00094988,71.0121,343.3682,248.3469,111.6643,0,U,25407,999,44044,-.47478969E-4,-.142E-5,0
ISS (ZARYA),1998-067A,2026-06-11T20:03:08.873568,15.49179015,.00049343,51.6334,326.5798,175.2433,184.8603,0,U,25544,999,57092,.13937484E-3,.7284E-4,0
CZ-4B R/B,1999-025C,2026-06-11T23:43:42.725280,14.18282590,.00382039,98.6485,204.9579,74.1878,349.9504,0,U,25732,999,40153,.35031737E-4,.3E-6,0
OKEAN-O,1999-039A,2026-06-11T17:42:24.601536,14.80460666,.00017337,97.9317,221.5980,75.5952,284.5453,0,U,25860,999,44830,.6970547E-4,.481E-5,0
SL-16 R/B,1999-039B,2026-06-11T16:43:50.221920,14.81839823,.00137695,97.9838,221.5756,316.3327,43.6796,0,U,25861,999,45078,.57945678E-4,.404E-5,0
DELTA 2 R/B,1999-041E,2026-06-11T15:42:34.682112,14.12006108,.05008719,51.7663,285.8973,265.6608,88.6960,0,U,25876,999,37630,.1569766E-3,.741E-5,0
HELIOS 1B,1999-064A,2026-06-11T17:33:44.803584,14.87992386,.00024702,98.1620,67.7135,98.4274,261.7222,0,U,25977,999,69924,.13416785E-3,.1172E-4,0
TERRA,1999-068A,2026-06-11T23:04:50.054880,14.61098896,.00011819,97.9458,212.7150,210.9434,272.5846,0,U,25994,999,40884,.73982692E-4,.319E-5,0
SL-16 R/B,2000-006B,2026-06-11T16:41:51.225792,14.15835303,.00152348,71.0027,260.1719,31.5761,328.6273,0,U,26070,999,36186,-.11472269E-3,-.274E-5,0
TITAN 4B R/B,2000-047B,2026-06-11T23:03:06.729120,15.10166795,.00456152,67.9873,135.2846,292.5189,67.1135,0,U,26474,999,40714,.1749159E-3,.2792E-4,0
ENVISAT,2002-009A,2026-06-11T21:30:44.295264,14.39063569,.00013387,98.3833,114.3328,89.8532,336.4099,0,U,27386,999,27272,.31557419E-4,.55E-6,0
IDEFIX & ARIANE 42P R/B,2002-021B,2026-06-11T19:34:50.520000,14.31079640,.00105865,98.5943,100.3572,271.5901,88.4069,0,U,27422,999,25748,.7907757E-4,.164E-5,0
AQUA,2002-022A,2026-06-11T22:07:08.782752,14.62150095,.00013125,98.4275,132.0993,53.2172,7.4768,0,U,27424,999,28250,.13764621E-3,.643E-5,0
CZ-4B R/B,2002-024C,2026-06-11T19:18:30.027744,14.14563447,.00511428,98.8700,215.6594,115.2012,359.8350,0,U,27432,999,24254,.3348156E-4,.21E-6,0
MIDORI II (ADEOS-II),2002-056A,2026-06-11T21:18:38.148192,14.29346788,.0002216,98.7877,122.1027,83.9491,276.1942,0,U,27597,999,22375,.99837607E-4,.209E-5,0
H-2A R/B,2002-056E,2026-06-11T22:03:23.453280,14.33819815,.00689977,98.3310,119.7857,240.4971,188.0062,0,U,27601,999,22761,.65542428E-4,.145E-5,0
CZ-4B R/B,2003-049C,2026-06-11T22:28:27.302304,14.55096716,.00471245,98.6895,161.5739,304.9987,54.6789,0,U,28059,999,20030,.703621E-4,.256E-5,0
CZ-2C R/B,2004-012C,2026-06-11T23:05:09.743712,15.77982003,.00089647,97.7094,238.0208,306.0599,53.9836,0,U,28222,999,21907,.53674371E-3,.91541E-3,0
SL-16 R/B,2004-021B,2026-06-11T22:17:10.723776,14.14610720,.0007444,71.0016,34.7262,260.7800,99.2480,0,U,28353,999,13616,-.11893854E-3,-.276E-5,0
CZ-4B R/B,2004-035C,2026-06-11T15:23:02.766336,15.30545786,.00305712,97.3373,195.7768,358.1891,1.9235,0,U,28415,999,19427,.25480387E-3,.7555E-4,0
CZ-2C R/B,2004-046B,2026-06-11T17:20:14.402688,14.27025326,.01382564,98.1949,71.8445,236.5373,122.2530,0,U,28480,999,12191,.30354599E-4,.4E-6,0
ARIANE 5 R/B,2004-049H,2026-06-11T22:38:39.653664,14.85442042,.00848255,98.2717,334.9941,46.2765,314.5433,0,U,28499,999,15978,.71409113E-4,.592E-5,0
CZ-2D R/B,2005-024B,2026-06-11T16:07:09.313248,15.68959215,.00042632,97.3492,181.8269,64.7947,295.3757,0,U,28738,999,15447,.45433722E-3,.5237E-3,0
ALOS (DAICHI),2006-002A,2026-06-11T20:23:12.018624,14.70039419,.0001646,98.1322,118.4335,58.1351,302.0014,0,U,28931,999,8731,.15478418E-3,.879E-5,0
